DMSP 5D-3 F16 (USA 172) 
1 28054U 03048A   26180.56380957  .00000006  00000+0  26699-4 0  9995
2 28054  98.9887 204.4739 0008142 109.4107  55.1151 14.14483981171231
METEOSAT-9 (MSG-2)      
1 28912U 05049B   26179.96874971  .00000126  00000+0  00000+0 0  9993
2 28912   9.3869  54.0519 0001919 359.7363 257.8028  1.00278597  7119
DMSP 5D-3 F17 (USA 191) 
1 29522U 06050A   26180.54416637  .00000029  00000+0  37107-4 0  9996
2 29522  98.7379 186.8614 0010640  26.9206 333.2518 14.14994546 14170
FENGYUN 3A              
1 32958U 08026A   26180.45242639  .00000059  00000+0  48708-4 0  9999
2 32958  98.6884 121.0563 0009889  92.1367 268.0942 14.19573534937149
GOES 14                 
1 35491U 09033A   26180.55044823 -.00000322  00000+0  00000+0 0  9991
2 35491   1.7207  82.9047 0002287  22.1211 145.3629  1.00107067  6715
DMSP 5D-3 F18 (USA 210) 
1 35951U 09057A   26180.51634767  .00000234  00000+0  14438-3 0  9991
2 35951  98.9043 161.2590 0010309 211.1858 148.8704 14.14903524861337
EWS-G2 (GOES 15)        
1 36411U 10008A   26180.52978977  .00000031  00000+0  00000+0 0  9997
2 36411   1.3105  82.6779 0005404  44.2018  44.9703  1.00268072 59768
COMS 1                  
1 36744U 10032A   26180.30826257 -.00000009  00000+0  00000+0 0  9998
2 36744   4.8349  75.2154 0011903  13.2738 325.0162  0.99167881 51202
FENGYUN 3B              
1 37214U 10059A   26180.55781781  .00000392  00000+0  22600-3 0  9997
2 37214  98.9619 226.6247 0022569 149.1924  12.3490 14.14845764809172
SUOMI NPP               
1 37849U 11061A   26180.53462282  .00000059  00000+0  49036-4 0  9998
2 37849  98.7955 121.3264 0000850 327.0319  33.0804 14.19519805760197
METEOSAT-10 (MSG-3)     
1 38552U 12035B   26180.30332256  .00000001  00000+0  00000+0 0  9994
2 38552   4.6991  60.9643 0001727  12.0419 313.7312  1.00269108 50974
METOP-B                 
1 38771U 12049A   26180.50804703  .00000104  00000+0  67243-4 0  9996
2 38771  98.6499 231.7612 0001473 340.6738  19.4383 14.21442561715013
INSAT-3D                
1 39216U 13038B   26180.55044823 -.00000330  00000+0  00000+0 0  9999
2 39216   1.9568  82.3974 0001153   8.6110 154.2990  1.00270534 47206
FENGYUN 3C              
1 39260U 13052A   26180.55300956  .00000078  00000+0  60702-4 0  9994
2 39260  98.4985 153.8603 0014536 352.7427   7.3535 14.15757720660318
METEOR-M 2              
1 40069U 14037A   26180.53423355  .00000142  00000+0  84315-4 0  9992
2 40069  98.5113 155.8353 0006150  12.7046 347.4286 14.21465329621077
HIMAWARI-8              
1 40267U 14060A   26180.54503284 -.00000264  00000+0  00000+0 0  9999
2 40267   0.0177 356.4441 0001134 101.5196 156.5425  1.00273273 42880
FENGYUN 2G              
1 40367U 14090A   26179.98239250 -.00000295  00000+0  00000+0 0  9992
2 40367   5.6682  72.6781 0003639 149.6814 147.9948  1.00268300 42114
METEOSAT-11 (MSG-4)     
1 40732U 15034A   26180.30514256  .00000070  00000+0  00000+0 0  9997
2 40732   3.2308  71.0353 0002239 347.6947 337.8883  1.00266868  7339
ELEKTRO-L 2             
1 41105U 15074A   26178.94596200 -.00000113  00000+0  00000+0 0  9991
2 41105   6.7214  70.3918 0000680 283.3260 248.3287  1.00271140 38617
SENTINEL-3A             
1 41335U 16011A   26180.48929882  .00000105  00000+0  61332-4 0  9996
2 41335  98.6246 247.6961 0001427  96.0574 264.0769 14.26735908539818
INSAT-3DR               
1 41752U 16054A   26180.46055384 -.00000066  00000+0  00000+0 0  9998
2 41752   0.1360  86.0630 0010028 186.6609 244.5940  1.00272430 35949
HIMAWARI-9              
1 41836U 16064A   26180.54503284 -.00000264  00000+0  00000+0 0  9998
2 41836   0.0172  74.7893 0001236  44.4489 135.3470  1.00270085 35337
GOES 16                 
1 41866U 16071A   26180.49644472 -.00000080  00000+0  00000+0 0  9994
2 41866   0.3710  85.5087 0000605  15.5010 250.5957  1.00272090 35220
FENGYUN 4A              
1 41882U 16077A   26180.55044824 -.00000348  00000+0  00000+0 0  9997
2 41882   2.3533  80.1546 0007908 157.9876   1.3273  1.00277732 35050
CYGFM05                 
1 41884U 16078A   26180.36236418  .00020607  00000+0  27398-3 0  9993
2 41884  34.9548 179.9357 0008187 259.2405 100.7398 15.57173676530657
CYGFM04                 
1 41885U 16078B   26180.29461968  .00028208  00000+0  30940-3 0  9998
2 41885  34.9309 147.4568 0007057 294.0658  65.9329 15.62168150530898
CYGFM02                 
1 41886U 16078C   26180.27172170  .00034247  00000+0  33176-3 0  9995
2 41886  34.9389 141.7856 0008018 296.5943  63.3962 15.65272249531069
CYGFM01                 
1 41887U 16078D   26180.34570020  .00021285  00000+0  27566-3 0  9994
2 41887  34.9377 181.0041 0007985 253.8047 106.1799 15.57867535530605
CYGFM08                 
1 41888U 16078E   26180.28407191  .00025357  00000+0  29531-3 0  9994
2 41888  34.9411 160.6678 0009001 281.6701  78.3014 15.60619397530864
CYGFM07                 
1 41890U 16078G   26180.30642965  .00025816  00000+0  29961-3 0  9997
2 41890  34.9431 148.8503 0007454 294.4214  65.5733 15.60723253530891
CYGFM03                 
1 41891U 16078H   26180.34145847  .00025551  00000+0  29663-3 0  9994
2 41891  34.9387 150.5500 0007257 282.6527  77.3387 15.60716743530876
