OBJECT_NAME,OBJECT_ID,EPOCH,MEAN_MOTION,ECCENTRICITY,INCLINATION,RA_OF_ASC_NODE,ARG_OF_PERICENTER,MEAN_ANOMALY,EPHEMERIS_TYPE,CLASSIFICATION_TYPE,NORAD_CAT_ID,ELEMENT_SET_NO,REV_AT_EPOCH,BSTAR,MEAN_MOTION_DOT,MEAN_MOTION_DDOT
DMSP 5D-3 F16 (USA 172),2003-048A,2026-06-29T13:31:53.146848,14.14483981,.0008142,98.9887,204.4739,109.4107,55.1151,0,U,28054,999,17123,.26699E-4,.6E-7,0
METEOSAT-9 (MSG-2),2005-049B,2026-06-28T23:14:59.974944,1.00278597,.00019199,9.3869,54.0519,359.7363,257.8028,0,U,28912,999,711,0,.126E-5,0
DMSP 5D-3 F17 (USA 191),2006-050A,2026-06-29T13:03:35.974368,14.14994546,.001064,98.7379,186.8614,26.9206,333.2518,0,U,29522,999,1417,.37107E-4,.29E-6,0
FENGYUN 3A,2008-026A,2026-06-29T10:51:29.640096,14.19573534,.0009889,98.6884,121.0563,92.1367,268.0942,0,U,32958,999,93714,.48708E-4,.59E-6,0
GOES 14,2009-033A,2026-06-29T13:12:38.727072,1.00107067,.0002287,1.7207,82.9047,22.1211,145.3629,0,U,35491,999,671,0,-.322E-5,0
DMSP 5D-3 F18 (USA 210),2009-057A,2026-06-29T12:23:32.438688,14.14903524,.0010309,98.9043,161.2590,211.1858,148.8704,0,U,35951,999,86133,.14438E-3,.234E-5,0
EWS-G2 (GOES 15),2010-008A,2026-06-29T12:42:53.836128,1.00268072,.0005404,1.3105,82.6779,44.2018,44.9703,0,U,36411,999,5976,0,.31E-6,0
COMS 1,2010-032A,2026-06-29T07:23:53.886048,0.99167881,.0011903,4.8349,75.2154,13.2738,325.0162,0,U,36744,999,5120,0,-.9E-7,0
FENGYUN 3B,2010-059A,2026-06-29T13:23:15.458784,14.14845764,.0022569,98.9619,226.6247,149.1924,12.3490,0,U,37214,999,80917,.226E-3,.392E-5,0
SUOMI NPP,2011-061A,2026-06-29T12:49:51.411648,14.19519805,.000085,98.7955,121.3264,327.0319,33.0804,0,U,37849,999,76019,.49036E-4,.59E-6,0
METEOSAT-10 (MSG-3),2012-035B,2026-06-29T07:16:47.069184,1.00269108,.0001727,4.6991,60.9643,12.0419,313.7312,0,U,38552,999,5097,0,.1E-7,0
METOP-B,2012-049A,2026-06-29T12:11:35.263392,14.21442561,.0001473,98.6499,231.7612,340.6738,19.4383,0,U,38771,999,71501,.67243E-4,.104E-5,0
INSAT-3D,2013-038B,2026-06-29T13:12:38.727072,1.00270534,.0001153,1.9568,82.3974,8.6110,154.2990,0,U,39216,999,4720,0,-.33E-5,0
FENGYUN 3C,2013-052A,2026-06-29T13:16:20.025984,14.15757720,.0014536,98.4985,153.8603,352.7427,7.3535,0,U,39260,999,66031,.60702E-4,.78E-6,0
METEOR-M 2,2014-037A,2026-06-29T12:49:17.778720,14.21465329,.000615,98.5113,155.8353,12.7046,347.4286,0,U,40069,999,62107,.84315E-4,.142E-5,0
HIMAWARI-8,2014-060A,2026-06-29T13:04:50.837376,1.00273273,.0001134,0.0177,356.4441,101.5196,156.5425,0,U,40267,999,4288,0,-.264E-5,0
FENGYUN 2G,2014-090A,2026-06-28T23:34:38.712000,1.00268300,.00036392,5.6682,72.6781,149.6814,147.9948,0,U,40367,999,4211,0,-.295E-5,0
METEOSAT-11 (MSG-4),2015-034A,2026-06-29T07:19:24.317184,1.00266868,.0002239,3.2308,71.0353,347.6947,337.8883,0,U,40732,999,733,0,.7E-6,0
ELEKTRO-L 2,2015-074A,2026-06-27T22:42:11.116800,1.00271140,.000068,6.7214,70.3918,283.3260,248.3287,0,U,41105,999,3861,0,-.113E-5,0
SENTINEL-3A,2016-011A,2026-06-29T11:44:35.418048,14.26735908,.0001427,98.6246,247.6961,96.0574,264.0769,0,U,41335,999,53981,.61332E-4,.105E-5,0
INSAT-3DR,2016-054A,2026-06-29T11:03:11.851776,1.00272430,.0010028,0.1360,86.0630,186.6609,244.5940,0,U,41752,999,3594,0,-.66E-6,0
HIMAWARI-9,2016-064A,2026-06-29T13:04:50.837376,1.00270085,.0001236,0.0172,74.7893,44.4489,135.3470,0,U,41836,999,3533,0,-.264E-5,0
GOES 16,2016-071A,2026-06-29T11:54:52.823808,1.00272090,.0000605,0.3710,85.5087,15.5010,250.5957,0,U,41866,999,3522,0,-.8E-6,0
FENGYUN 4A,2016-077A,2026-06-29T13:12:38.727936,1.00277732,.0007908,2.3533,80.1546,157.9876,1.3273,0,U,41882,999,3505,0,-.348E-5,0
CYGFM05,2016-078A,2026-06-29T08:41:48.265152,15.57173676,.0008187,34.9548,179.9357,259.2405,100.7398,0,U,41884,999,53065,.27398E-3,.20607E-3,0
CYGFM04,2016-078B,2026-06-29T07:04:15.140352,15.62168150,.0007057,34.9309,147.4568,294.0658,65.9329,0,U,41885,999,53089,.3094E-3,.28208E-3,0
CYGFM02,2016-078C,2026-06-29T06:31:16.754880,15.65272249,.0008018,34.9389,141.7856,296.5943,63.3962,0,U,41886,999,53106,.33176E-3,.34247E-3,0
CYGFM01,2016-078D,2026-06-29T08:17:48.497280,15.57867535,.0007985,34.9377,181.0041,253.8047,106.1799,0,U,41887,999,53060,.27566E-3,.21285E-3,0
CYGFM08,2016-078E,2026-06-29T06:49:03.813024,15.60619397,.0009001,34.9411,160.6678,281.6701,78.3014,0,U,41888,999,53086,.29531E-3,.25357E-3,0
CYGFM07,2016-078G,2026-06-29T07:21:15.521760,15.60723253,.0007454,34.9431,148.8503,294.4214,65.5733,0,U,41890,999,53089,.29961E-3,.25816E-3,0
CYGFM03,2016-078H,2026-06-29T08:11:42.011808,15.60716743,.0007257,34.9387,150.5500,282.6527,77.3387,0,U,41891,999,53087,.29663E-3,.25551E-3,0
